{"type": "FeatureCollection", "features": [{"type": "Feature", "properties": {"NUTS_ID": "DE409", "LEVL_CODE": 3, "CNTR_CODE": "DE", "NAME_LATN": "M\u00e4rkisch-Oderland", "NUTS_NAME": "M\u00e4rkisch-Oderland", "MOUNT_TYPE": 4, "URBN_TYPE": 2, "COAST_TYPE": 3, "ll_slug": "east-brandenburg"}, "geometry": {"type": "Polygon", "coordinates": [[[14.124115389000053, 52.903252731000066], [14.130627633000074, 52.88990902200004], [14.156692, 52.895590999000035], [14.161128704000078, 52.88789005500007], [14.157416384000044, 52.87460412900003], [14.124115389000053, 52.84594340700005], [14.13071725900005, 52.828349126000035], [14.21554984900007, 52.81712708300006], [14.279913108000073, 52.77418956900004], [14.350841676000073, 52.75131343500004], [14.46824874300006, 52.65974427700007], [14.596684954000068, 52.61001128400005], [14.611834, 52.58912999900008], [14.639599769000029, 52.571175571000026], [14.615724576000048, 52.55400999500006], [14.604481252000028, 52.533739764000075], [14.61320454500003, 52.510230568000054], [14.635092772000064, 52.49580896900005], [14.629995853000025, 52.48707754000003], [14.578196078000076, 52.44142982300008], [14.549663028000055, 52.43354713900004], [14.534362, 52.39500799900003], [14.431744500000036, 52.39421449900004], [14.423764500000061, 52.37396849900006], [14.370451, 52.38745199900006], [14.349538500000051, 52.37408449900005], [14.315515985000047, 52.38286169000003], [14.326409175000038, 52.40227226600007], [14.278801500000043, 52.41269499900005], [14.28440463000004, 52.42680483400005], [14.271165358000076, 52.44897592500007], [14.27431443200004, 52.46256294900007], [14.20982299700006, 52.49630512400006], [14.188765365000052, 52.498171522000064], [14.177426100000048, 52.46956473700004], [14.099165898000024, 52.46237837400008], [14.090915377000044, 52.452698672000054], [14.080902080000044, 52.452788594000026], [14.082618689000071, 52.46587327300006], [14.069335025000044, 52.479670629000054], [14.029594663000069, 52.47081694600007], [14.006834741000034, 52.44806066700005], [13.993721879000077, 52.45581928100006], [13.994749625000054, 52.46385404100005], [13.963654345000066, 52.466181248000055], [13.943127, 52.47861849900005], [13.899355090000029, 52.47359289000008], [13.879171112000051, 52.45771578800003], [13.851664457000027, 52.457308158000046], [13.823769833000028, 52.43795464800007], [13.765060305000077, 52.44717111700004], [13.763010520000023, 52.45794254600003], [13.773646971000062, 52.465716385000064], [13.743218500000069, 52.46557399900007], [13.740721, 52.48650749900003], [13.712586136000027, 52.49312211900008], [13.710987500000044, 52.50267849900007], [13.67828650000007, 52.49414899900006], [13.66698, 52.47416699900003], [13.641989781000063, 52.47923467600003], [13.624408239000047, 52.46866751200008], [13.612536806000037, 52.471050622000064], [13.629705687000069, 52.49351027900008], [13.633046102000037, 52.51132729500006], [13.658572500000048, 52.52581099900004], [13.62696515500005, 52.53053825500007], [13.63425161400005, 52.541345629000034], [13.610827500000028, 52.54423549900008], [13.61732961000007, 52.56169052400003], [13.65446619200003, 52.569964506000076], [13.661159687000065, 52.56259373900008], [13.674032703000023, 52.56646565800003], [13.685153541000034, 52.57640346300008], [13.671408, 52.58207149900005], [13.715024963000076, 52.58808931500005], [13.712978354000029, 52.60049393000003], [13.726345387000038, 52.60212570500005], [13.729807299000072, 52.61208164400006], [13.82846713400005, 52.62501709600008], [13.845615, 52.64733399900007], [13.837999678000074, 52.65224033900006], [13.848431890000029, 52.659679261000065], [13.857172462000051, 52.68442776100005], [13.849701500000037, 52.69355899900006], [13.780932668000048, 52.66742846500006], [13.754326500000047, 52.71346149900006], [13.759422500000028, 52.71647449900007], [13.732607391000045, 52.73346091900004], [13.862008827000068, 52.76000318700005], [13.86354013500005, 52.77225883500006], [13.875773066000022, 52.77784894900003], [13.863525, 52.787566999000035], [13.923112660000072, 52.79498723300003], [13.94022211500004, 52.80803519800003], [13.941786388000025, 52.82423304900004], [13.973540440000022, 52.82541698800003], [13.979184609000072, 52.84285010100007], [14.000587643000074, 52.85696447200007], [14.024349981000057, 52.848148852000065], [14.093441770000027, 52.857205821000036], [14.10032745500007, 52.868919970000036], [14.064178764000076, 52.86993705900005], [14.06033282900006, 52.88442572900004], [14.079407500000059, 52.90072499900003], [14.08236850000003, 52.89092549900005], [14.09574850000007, 52.90269999900005], [14.124115389000053, 52.903252731000066]]]}}, {"type": "Feature", "properties": {"NUTS_ID": "DE408", "LEVL_CODE": 3, "CNTR_CODE": "DE", "NAME_LATN": "Havelland", "NUTS_NAME": "Havelland", "MOUNT_TYPE": 4, "URBN_TYPE": 2, "COAST_TYPE": 3, "ll_slug": "havellandisches-luch"}, "geometry": {"type": "Polygon", "coordinates": [[[12.60153609200006, 52.800906292000036], [12.610735288000058, 52.79048789500007], [12.651134500000069, 52.80001499900004], [12.647089579000067, 52.79260241000003], [12.668856594000033, 52.782110327000055], [12.673774412000057, 52.76965630400008], [12.716766807000056, 52.758407427000066], [12.721780050000064, 52.743658175000064], [12.70814213400007, 52.72971343100005], [12.726973074000057, 52.722014337000076], [12.740512500000023, 52.703295499000035], [12.766015, 52.694581999000036], [12.833666845000039, 52.682713955000054], [12.828762500000039, 52.69475649900005], [12.929844244000037, 52.72469715500006], [12.96209772900005, 52.72027907200004], [12.976158601000066, 52.71038761300008], [12.97038400200006, 52.70148487300003], [12.995598500000028, 52.69764649900003], [12.991581, 52.69252899900005], [13.021881533000055, 52.68915422900005], [13.018806894000022, 52.67764325600007], [13.028938261000064, 52.67588810900003], [13.01594731800003, 52.670929544000046], [13.094524174000071, 52.67755375000007], [13.090437104000046, 52.663364038000054], [13.11225170800003, 52.63489675300008], [13.157461752000074, 52.627008242000045], [13.158754613000042, 52.61685489600006], [13.147859040000071, 52.61176260900004], [13.164263, 52.59890049900008], [13.12898750000005, 52.58744199900008], [13.133109821000062, 52.580064297000035], [13.149638927000069, 52.582580473000064], [13.152907091000031, 52.57384140500005], [13.14614363100003, 52.55409383700004], [13.130586702000073, 52.55483821900003], [13.117980785000043, 52.51767017100008], [13.14256326800006, 52.51932824900007], [13.164940845000046, 52.50925112700003], [13.120648626000047, 52.49123651000008], [13.098726830000032, 52.493660169000066], [13.094891633000032, 52.470220751000056], [13.070646142000044, 52.46183614100005], [13.046050277000063, 52.468299846000036], [13.004325613000049, 52.51365917900006], [12.935788467000066, 52.49978463700006], [12.915677680000044, 52.47350030200005], [12.890247013000021, 52.464832958000045], [12.89128207300007, 52.45092946400007], [12.816690473000051, 52.473234726000044], [12.811973665000039, 52.465957255000035], [12.745205, 52.45848499900006], [12.743301788000053, 52.47709785200004], [12.758830425000042, 52.482339815000046], [12.734559500000046, 52.49821599900008], [12.749739, 52.50958449900003], [12.716307500000028, 52.52503099900008], [12.723901, 52.53984349900003], [12.718316753000067, 52.54540189800008], [12.690404500000056, 52.55005599900005], [12.671502365000038, 52.537528347000034], [12.651270483000076, 52.54192466000006], [12.575519, 52.52693499900005], [12.536324500000035, 52.53821899900004], [12.502287017000072, 52.53676481800005], [12.487349894000033, 52.54537834200005], [12.485656791000054, 52.55662257800003], [12.428372, 52.553945999000064], [12.429102362000037, 52.540125628000055], [12.407082957000057, 52.53831651200005], [12.426658007000071, 52.52727300600003], [12.428482509000048, 52.51300472100007], [12.414664500000072, 52.508763499000054], [12.423171315000047, 52.50130300700005], [12.412169043000063, 52.49512301800007], [12.423223088000043, 52.491897805000065], [12.413255432000028, 52.47693443000003], [12.44884537300004, 52.47819797600005], [12.447219614000062, 52.47266058800005], [12.423982324000065, 52.454540130000055], [12.407430632000057, 52.45682822100008], [12.342115174000071, 52.43932796000007], [12.327893588000052, 52.44027912900003], [12.31718, 52.45409549900006], [12.328287566000029, 52.47681546300004], [12.309567281000056, 52.47990286600003], [12.328473282000061, 52.495622723000054], [12.273094805000028, 52.488044742000056], [12.257072667000045, 52.51711301900008], [12.237522496000054, 52.52286889100003], [12.22052478300003, 52.50119924000006], [12.185414015000049, 52.49719095300003], [12.168178952000062, 52.51515541200007], [12.187509172000034, 52.53242214900007], [12.172583222000071, 52.538290896000035], [12.143822928000077, 52.53099089800003], [12.15921744800005, 52.56062118300008], [12.179942228000073, 52.57473052100005], [12.173808558000076, 52.58103542500004], [12.171894, 52.625781999000026], [12.201922266000054, 52.61892986500004], [12.236807500000054, 52.629867499000056], [12.231143579000047, 52.630624090000026], [12.239299500000072, 52.66581849900007], [12.227641434000077, 52.68317843500006], [12.232259125000041, 52.68874362200006], [12.222791974000074, 52.68895674500004], [12.222432643000047, 52.70394479700008], [12.205436794000036, 52.71258691100007], [12.208545418000028, 52.71788075000006], [12.19831251200003, 52.718454619000056], [12.201294500000074, 52.72900399900004], [12.221520260000034, 52.739635546000045], [12.207025103000035, 52.75995342400006], [12.222430798000062, 52.77655698800004], [12.221860121000077, 52.78913577800006], [12.242592258000059, 52.78758468700005], [12.269635, 52.80089249900004], [12.334380305000025, 52.79542033700005], [12.376374269000053, 52.80476099700007], [12.396745281000051, 52.80212923500005], [12.405774543000064, 52.78961481200008], [12.378729, 52.770128499000066], [12.39627179100006, 52.77109265200005], [12.405862094000042, 52.75349705000008], [12.486392642000055, 52.76057920100004], [12.534028344000035, 52.75013779500006], [12.548986797000055, 52.76056593700008], [12.542825823000044, 52.76549411700006], [12.549493766000069, 52.77486421700007], [12.534306325000045, 52.782419067000035], [12.533528, 52.79265349900004], [12.550817856000037, 52.80191653600008], [12.549924973000032, 52.810291291000055], [12.60153609200006, 52.800906292000036]]]}}, {"type": "Feature", "properties": {"NUTS_ID": "DE734", "LEVL_CODE": 3, "CNTR_CODE": "DE", "NAME_LATN": "Kassel, Landkreis", "NUTS_NAME": "Kassel, Landkreis", "MOUNT_TYPE": 4, "URBN_TYPE": 2, "COAST_TYPE": 3, "ll_slug": "north-hessian-loess"}, "geometry": {"type": "MultiPolygon", "coordinates": [[[[9.498267722000037, 51.651650896000035], [9.49162350000006, 51.638119999000025], [9.509208895000029, 51.62696399100008], [9.545495750000043, 51.639673052000035], [9.566327215000058, 51.62546439800008], [9.630207778000056, 51.63467401400004], [9.63945982100006, 51.60812974800007], [9.690190769000026, 51.57658884300008], [9.685092377000046, 51.56787394400004], [9.672377500000039, 51.568403999000054], [9.627797790000045, 51.58234290900003], [9.628385007000077, 51.56744982500004], [9.647755500000073, 51.55251099900005], [9.624601558000052, 51.54880712500005], [9.610086939000041, 51.55646117300006], [9.621926761000054, 51.540223050000066], [9.616081234000035, 51.527205956000046], [9.586583590000032, 51.51702206600004], [9.618200562000027, 51.48247009700003], [9.642374114000063, 51.47081782200007], [9.627903220000064, 51.44463291000005], [9.642861822000043, 51.417005130000064], [9.629228367000053, 51.40634423900008], [9.579777565000029, 51.40158643800004], [9.559757667000042, 51.37826671800008], [9.575734664000038, 51.37185554100006], [9.566354903000047, 51.36140436100004], [9.532450417000064, 51.36707128100005], [9.557291, 51.35137849900008], [9.547916135000037, 51.351416535000055], [9.538470006000068, 51.33787316400003], [9.505602838000073, 51.34337059200004], [9.496891, 51.35169699900007], [9.468016551000062, 51.34284670200003], [9.421727070000031, 51.35381762700007], [9.376054269000065, 51.35002388000004], [9.370011, 51.348699999000075], [9.38119100800003, 51.31994929900003], [9.351519, 51.307210499000064], [9.373497576000034, 51.28447309100005], [9.482835, 51.261940999000046], [9.491484652000054, 51.28327448700003], [9.512638500000037, 51.26800749900008], [9.528482877000044, 51.278114059000075], [9.525027986000055, 51.28361948700007], [9.558483500000023, 51.29516199900007], [9.553927065000039, 51.31072563300006], [9.53163698000003, 51.31796268100004], [9.581804721000026, 51.34096976300003], [9.605871445000048, 51.32624048400004], [9.632188362000022, 51.32572093400006], [9.629649285000028, 51.313127046000034], [9.67083020900003, 51.317076248000035], [9.728707050000025, 51.29778988000004], [9.73329155600004, 51.29295088500004], [9.67591561100005, 51.30865507800007], [9.652125, 51.30457699900006], [9.64504273700004, 51.28530671900006], [9.697423011000069, 51.263190791000056], [9.745754164000061, 51.26199611900006], [9.75381150000004, 51.26805449900007], [9.759452500000066, 51.26064949900007], [9.753389345000073, 51.25070763000008], [9.724388200000021, 51.23926925500007], [9.688354195000045, 51.24415234600008], [9.67035797400007, 51.224596457000075], [9.674346874000037, 51.21737030600008], [9.665109843000039, 51.220317547000036], [9.629405752000025, 51.201902903000075], [9.633725683000023, 51.197034718000054], [9.62606968700004, 51.19262964300003], [9.635957500000075, 51.18309799900004], [9.604123214000026, 51.17159269500007], [9.562822009000058, 51.18758815100006], [9.570729115000063, 51.19026833500004], [9.558489062000035, 51.19767911000008], [9.56669895300007, 51.209783670000036], [9.545641543000045, 51.215399105000074], [9.529358903000059, 51.21234226900003], [9.516152500000032, 51.22227399900004], [9.484807571000033, 51.21306137700003], [9.471864026000048, 51.21952784100006], [9.473834500000066, 51.22506899900003], [9.44529424500007, 51.22854025100003], [9.409422776000042, 51.221689999000034], [9.397203115000025, 51.231833263000055], [9.36108712600003, 51.23544881400005], [9.35156495700005, 51.25224678400008], [9.326768, 51.25764699900003], [9.32911050000007, 51.252945999000076], [9.297900674000061, 51.24667310600006], [9.285415564000061, 51.25346638100007], [9.277095756000051, 51.24967801100007], [9.274158046000025, 51.23951836500004], [9.283299915000043, 51.23518765100005], [9.27153327800005, 51.23330550700007], [9.279732598000066, 51.228179726000064], [9.265473, 51.197771999000054], [9.233275500000047, 51.19939849900004], [9.222180688000037, 51.19507833500006], [9.228763879000041, 51.17941221800004], [9.189525500000059, 51.17041799900005], [9.176915215000065, 51.17524354500006], [9.168454264000047, 51.19515751700004], [9.128764, 51.21959249900004], [9.12938398600005, 51.243259101000035], [9.111367980000068, 51.24480078100004], [9.09466545400005, 51.257505096000045], [9.093813500000067, 51.26761799900004], [9.125512039000057, 51.27694074900006], [9.109189919000073, 51.290206186000034], [9.112048142000049, 51.32024118700008], [9.100988124000025, 51.33048319800008], [9.128256126000053, 51.34444961000003], [9.11041835900005, 51.34969171100005], [9.101653500000054, 51.364355999000054], [9.141646137000066, 51.371836262000045], [9.154860696000071, 51.35716649900007], [9.167004091000024, 51.359711495000056], [9.160208445000023, 51.36810649100005], [9.173892124000076, 51.37297522600005], [9.168609391000075, 51.39375307100005], [9.141463263000048, 51.41287463900005], [9.161101077000069, 51.41913372300007], [9.154601438000043, 51.42125488000005], [9.160554232000038, 51.42487108100005], [9.155410500000073, 51.442674999000076], [9.18529469200007, 51.46628700500003], [9.215635706000057, 51.460223160000055], [9.217194519000032, 51.48090619900006], [9.242107255000064, 51.49726241500008], [9.264023439000027, 51.498587832000055], [9.283545680000032, 51.51422432800007], [9.30811211100007, 51.51322256000003], [9.317764834000059, 51.55158541600008], [9.371551694000061, 51.591979], [9.338752511000052, 51.615029959000026], [9.421763758000054, 51.629615269000055], [9.443926229000056, 51.64401449800005], [9.440457, 51.65039399900007], [9.453523165000036, 51.64642755500006], [9.490320857000029, 51.657185076000076], [9.498267722000037, 51.651650896000035]]], [[[9.710458703000029, 51.274611363000076], [9.711313800000028, 51.27056523700003], [9.708377769000037, 51.271606414000075], [9.710458703000029, 51.274611363000076]]]]}}, {"type": "Feature", "properties": {"NUTS_ID": "DE737", "LEVL_CODE": 3, "CNTR_CODE": "DE", "NAME_LATN": "Werra-Mei\u00dfner-Kreis", "NUTS_NAME": "Werra-Mei\u00dfner-Kreis", "MOUNT_TYPE": 2, "URBN_TYPE": 3, "COAST_TYPE": 3, "ll_slug": "north-hessian-loess"}, "geometry": {"type": "Polygon", "coordinates": [[[9.908030002000032, 51.407552972000076], [9.930694851000055, 51.39189899200005], [9.923293500000057, 51.36804299900007], [9.930920207000042, 51.33974120900007], [9.947567, 51.32639499900006], [9.940433361000032, 51.30675879200004], [9.969058467000025, 51.30036203600008], [9.973122757000056, 51.28512398000004], [10.059916, 51.275865499000076], [10.046969, 51.25342549900006], [10.078995, 51.24278099900005], [10.069400467000037, 51.226503026000046], [10.113797022000028, 51.215726188000076], [10.141316937000056, 51.219009268000036], [10.149790500000051, 51.20618949900006], [10.171308199000066, 51.21135976100004], [10.19698519000002, 51.19251626500005], [10.23480717700005, 51.18718621000005], [10.229455040000062, 51.174812443000064], [10.207870075000073, 51.16450477600006], [10.200973819000069, 51.15029735100006], [10.210013, 51.144082999000034], [10.204193934000045, 51.13336591400008], [10.210512035000022, 51.12397816400005], [10.198965909000037, 51.113449435000064], [10.179704284000024, 51.127630682000074], [10.185169924000036, 51.13984110700005], [10.169398365000063, 51.152446016000056], [10.118321500000036, 51.13957299900005], [10.150131419000047, 51.12041561500007], [10.172712111000067, 51.117716038000026], [10.173055719000047, 51.10607190800005], [10.16033240300004, 51.10721001400003], [10.164983006000057, 51.09996115300004], [10.145596553000075, 51.08579617400005], [10.15385400100007, 51.070662311000035], [10.141180820000045, 51.059748702000036], [10.184671500000036, 51.04903249900008], [10.215185500000075, 51.02641949900004], [10.193856771000071, 51.01945130300004], [10.202181, 51.012008999000045], [10.19528282400006, 51.00260368200003], [10.150182548000032, 50.99424653400007], [10.136820070000056, 50.99531550100005], [10.119955879000031, 51.011526909000054], [10.103037620000066, 51.004856019000044], [10.05478873800007, 51.01287496800006], [10.032434500000022, 51.01104649900003], [10.021558500000026, 50.992949499000076], [9.990317, 50.99544799900008], [9.983095762000062, 51.00304115700004], [9.999305805000063, 51.028502797000044], [9.932483251000065, 51.05200630400003], [9.916489544000058, 51.04519892700006], [9.866572079000036, 51.04957296400005], [9.865034627000057, 51.06108073900003], [9.827716782000039, 51.07232154400003], [9.821119, 51.08499449900006], [9.777533, 51.083158499000035], [9.780697261000057, 51.11666468100003], [9.773271, 51.14628649900004], [9.731641214000035, 51.14484160900008], [9.692614991000028, 51.16799841000005], [9.685201663000043, 51.184745269000075], [9.635957500000075, 51.18309799900004], [9.62606968700004, 51.19262964300003], [9.64036550000003, 51.21163549900007], [9.674346874000037, 51.21737030600008], [9.67035797400007, 51.224596457000075], [9.688354195000045, 51.24415234600008], [9.724388200000021, 51.23926925500007], [9.753389345000073, 51.25070763000008], [9.759452500000066, 51.26064949900007], [9.75381150000004, 51.26805449900007], [9.745754164000061, 51.26199611900006], [9.697423011000069, 51.263190791000056], [9.648047919000021, 51.27880148500003], [9.644649768000022, 51.29004749400008], [9.650791311000035, 51.29074702200006], [9.652125, 51.30457699900006], [9.67591561100005, 51.30865507800007], [9.730456956000069, 51.29273714300007], [9.76734332600006, 51.306901855000035], [9.770584851000024, 51.335865356000056], [9.739621402000068, 51.319957388000034], [9.703997713000035, 51.365255955000066], [9.73989085200003, 51.36978118300004], [9.766605287000061, 51.385974142000066], [9.800598637000064, 51.38707468200005], [9.793169327000044, 51.40269684500004], [9.803510500000073, 51.41040049900005], [9.840138203000038, 51.40192246400005], [9.840748192000035, 51.383432491000065], [9.863818563000052, 51.37188291000007], [9.868359500000054, 51.37422949900008], [9.856290605000027, 51.385092661000044], [9.851240010000026, 51.41332288000007], [9.879957944000068, 51.40516403300006], [9.88398088100007, 51.41465639200004], [9.90605860100004, 51.42024955000005], [9.91267080700004, 51.41139059400007], [9.908030002000032, 51.407552972000076]], [[9.710458703000029, 51.274611363000076], [9.711313800000028, 51.27056523700003], [9.713955335000037, 51.27473484300003], [9.710458703000029, 51.274611363000076]]]}}, {"type": "Feature", "properties": {"NUTS_ID": "DE722", "LEVL_CODE": 3, "CNTR_CODE": "DE", "NAME_LATN": "Lahn-Dill-Kreis", "NUTS_NAME": "Lahn-Dill-Kreis", "MOUNT_TYPE": 4, "URBN_TYPE": 2, "COAST_TYPE": 3, "ll_slug": "hessian-low-mountain"}, "geometry": {"type": "Polygon", "coordinates": [[[8.291660500000035, 50.88110853500007], [8.306373946000065, 50.86156503400008], [8.352063945000054, 50.86500988700004], [8.35572250000007, 50.85462399900007], [8.398344440000074, 50.84769103000008], [8.403726500000062, 50.84207949900008], [8.394365272000073, 50.80882099100006], [8.402518006000037, 50.792025006000074], [8.444444, 50.797289499000044], [8.458308428000066, 50.785133786000074], [8.434267739000063, 50.76116179400003], [8.454305385000055, 50.72265470600007], [8.497614747000057, 50.737452595000036], [8.529905580000047, 50.73063885700003], [8.540687432000027, 50.73916537100007], [8.547729, 50.73679749900003], [8.541792177000048, 50.72460585600004], [8.550568695000038, 50.70974678200008], [8.574103198000046, 50.70665489800007], [8.519074, 50.63034399900005], [8.53434171500004, 50.618083553000076], [8.55119445300005, 50.62722099500007], [8.574900159000038, 50.61823898100005], [8.606619911000053, 50.582530389000055], [8.605719, 50.57138499900003], [8.618906500000037, 50.565011999000035], [8.585895659000073, 50.54231887600008], [8.55652850000007, 50.53579749900007], [8.650807, 50.51510699900007], [8.633579914000052, 50.509570223000026], [8.630803710000066, 50.50018969000007], [8.59692227000005, 50.50352782400006], [8.547704500000066, 50.468961499000045], [8.529888003000053, 50.465401084000064], [8.546374078000042, 50.41995008300006], [8.562048334000053, 50.424347365000074], [8.577542, 50.41501899900004], [8.539131172000054, 50.41638711200005], [8.50655772400006, 50.39689806400003], [8.482842067000036, 50.40105008300003], [8.42491122000007, 50.446718529000066], [8.437458521000053, 50.47238218500007], [8.41365541700003, 50.457216145000075], [8.393387802000063, 50.45728178400003], [8.360647219000043, 50.48743988200005], [8.357506123000064, 50.508605018000026], [8.314017, 50.516747499000076], [8.283763327000031, 50.534683947000076], [8.257867985000075, 50.57382118600003], [8.22933451700004, 50.58527139600005], [8.20639250000005, 50.56374399900005], [8.198194775000047, 50.565059846000054], [8.164631951000047, 50.577062812000065], [8.155478239000047, 50.598436278000065], [8.127958500000034, 50.60771899900004], [8.140853350000043, 50.62686983200007], [8.110092500000064, 50.65725099900004], [8.11022950000006, 50.670900999000025], [8.130226973000049, 50.695863185000064], [8.142606500000056, 50.695448499000065], [8.166506232000074, 50.73570110600008], [8.150542494000035, 50.76077434200005], [8.136616421000042, 50.76701632500004], [8.140597720000073, 50.77160099100007], [8.129247500000076, 50.789104999000074], [8.165783346000069, 50.803720214000066], [8.187629139000023, 50.82816111400007], [8.231314, 50.850639999000066], [8.26636490200002, 50.87944072300007], [8.291660500000035, 50.88110853500007]]]}}, {"type": "Feature", "properties": {"NUTS_ID": "DE723", "LEVL_CODE": 3, "CNTR_CODE": "DE", "NAME_LATN": "Limburg-Weilburg", "NUTS_NAME": "Limburg-Weilburg", "MOUNT_TYPE": 4, "URBN_TYPE": 2, "COAST_TYPE": 3, "ll_slug": "hessian-low-mountain"}, "geometry": {"type": "MultiPolygon", "coordinates": [[[[8.164631951000047, 50.577062812000065], [8.20639250000005, 50.56374399900005], [8.22933451700004, 50.58527139600005], [8.257867985000075, 50.57382118600003], [8.283763327000031, 50.534683947000076], [8.314017, 50.516747499000076], [8.357506123000064, 50.508605018000026], [8.360647219000043, 50.48743988200005], [8.393387802000063, 50.45728178400003], [8.41365541700003, 50.457216145000075], [8.437458521000053, 50.47238218500007], [8.42491122000007, 50.446718529000066], [8.440666572000055, 50.42914642200003], [8.464904526000055, 50.42099773000007], [8.467215, 50.41504849900008], [8.404657740000061, 50.39811186400004], [8.391844422000077, 50.40377628700003], [8.389933, 50.38715749900007], [8.35012062800007, 50.37375689000004], [8.35304271700005, 50.360500227000045], [8.31519350000002, 50.34037599900006], [8.361676776000024, 50.31491348800006], [8.359960164000029, 50.308019641000044], [8.336967263000076, 50.30412798000003], [8.354557, 50.29422999900004], [8.345020658000067, 50.284518483000056], [8.326969727000062, 50.28310301100004], [8.313629, 50.27144899900003], [8.277126485000053, 50.27575803000008], [8.256756738000036, 50.26483917300004], [8.230935901000066, 50.27608384200005], [8.221256, 50.29155699900008], [8.169809926000028, 50.27689897000005], [8.121913500000062, 50.277224999000055], [8.119352455000069, 50.29812430100003], [8.103886, 50.30798449900004], [8.106147691000047, 50.32225686100003], [8.071436, 50.33262649900007], [8.075879215000043, 50.34961957100006], [8.060747073000073, 50.37319266700007], [8.042068924000034, 50.385601189000056], [8.014323, 50.384474999000076], [8.023757500000045, 50.40076599900004], [7.989626500000043, 50.39817149900006], [7.964738828000065, 50.41096205900004], [7.986817288000054, 50.42787683900008], [7.98778143800007, 50.43502966900007], [7.976905804000069, 50.43775676300004], [8.010064837000073, 50.45268335800006], [7.979304379000041, 50.485315841000045], [7.978903, 50.49538399900007], [7.989094799000043, 50.49882925500003], [7.982937, 50.511460999000064], [8.029087408000066, 50.550379476000046], [8.041611500000045, 50.55699349900004], [8.065621858000043, 50.548847515000034], [8.07052150000004, 50.53799799900003], [8.117602158000068, 50.53525172900004], [8.120880500000055, 50.53965999900004], [8.111660581000024, 50.542655754000066], [8.137005504000058, 50.55108186700005], [8.13275681500005, 50.55972881500003], [8.151592, 50.59937099900003], [8.164631951000047, 50.577062812000065]]], [[[8.048884873000077, 50.37831423200004], [8.04558971800003, 50.374014224000064], [8.04369340200003, 50.37571428100006], [8.048884873000077, 50.37831423200004]]]]}}, {"type": "Feature", "properties": {"NUTS_ID": "DE725", "LEVL_CODE": 3, "CNTR_CODE": "DE", "NAME_LATN": "Vogelsbergkreis", "NUTS_NAME": "Vogelsbergkreis", "MOUNT_TYPE": 4, "URBN_TYPE": 3, "COAST_TYPE": 3, "ll_slug": "hessian-low-mountain"}, "geometry": {"type": "Polygon", "coordinates": [[[9.148868500000049, 50.83664499900004], [9.209594, 50.822253999000054], [9.232818500000064, 50.82655899900004], [9.240308408000033, 50.81803350800004], [9.26134397900006, 50.81635338600006], [9.269023197000024, 50.79998381300004], [9.316363500000023, 50.80967499900004], [9.317634420000047, 50.800790868000036], [9.329092032000062, 50.795829850000075], [9.363338086000056, 50.79928418600008], [9.379004847000033, 50.77767747300004], [9.391577924000046, 50.77344634700006], [9.405696508000062, 50.789065821000065], [9.441055, 50.79564449900005], [9.448049447000074, 50.78166937300006], [9.434990274000029, 50.77381050900004], [9.448427267000056, 50.769602803000055], [9.458275426000057, 50.77604172900004], [9.454494, 50.76354649900003], [9.477926401000047, 50.76330019300008], [9.5063, 50.73464949900006], [9.560011, 50.76298949900007], [9.581777251000062, 50.76531812700006], [9.604563, 50.75744199900004], [9.611464500000068, 50.73547649900007], [9.607312496000077, 50.72046135000005], [9.62307820600006, 50.68815386300008], [9.650018500000044, 50.680867499000044], [9.620460318000028, 50.64981830600004], [9.641732500000046, 50.62778949900007], [9.607138500000076, 50.60560249900004], [9.590506532000063, 50.60743767800005], [9.552748716000053, 50.622170822000044], [9.555264083000054, 50.62967509200007], [9.539522069000043, 50.640160765000076], [9.501920735000056, 50.63783080200005], [9.480281053000056, 50.66242682500007], [9.466069, 50.66061799900007], [9.481242087000055, 50.65198939900006], [9.473981408000043, 50.62766245200004], [9.500469, 50.61103299900003], [9.482345654000028, 50.591887135000036], [9.479234500000075, 50.57508749900006], [9.497021984000071, 50.56818768900007], [9.488178, 50.55683599900004], [9.464138216000038, 50.549534376000054], [9.447850588000051, 50.52118850900007], [9.448140676000037, 50.50472177900008], [9.42753250000004, 50.47871199900004], [9.459906500000045, 50.47697549900005], [9.454060422000055, 50.46145129300004], [9.479113, 50.44068549900004], [9.449501224000073, 50.426604875000066], [9.438898271000028, 50.42893671300004], [9.436003175000053, 50.40919290100004], [9.411008277000064, 50.40308724300007], [9.39734717500005, 50.39106996600003], [9.369840921000048, 50.39509269200005], [9.350255361000052, 50.386344406000035], [9.342039862000036, 50.399809004000076], [9.351655226000048, 50.41404632100006], [9.34840706500006, 50.42052391900006], [9.355590576000054, 50.42031185400003], [9.352758593000033, 50.43650404300007], [9.335956500000066, 50.45186199900007], [9.297387377000064, 50.46290866800007], [9.285011409000049, 50.45574153600006], [9.286735, 50.437297999000066], [9.271456026000067, 50.438665968000066], [9.259345630000041, 50.46243952000003], [9.172001051000052, 50.444606932000056], [9.143674500000031, 50.424686499000074], [9.152711120000049, 50.439032086000054], [9.148138679000056, 50.44131880200007], [9.08794957300006, 50.43895548200004], [9.095374918000061, 50.445222184000045], [9.093397671000048, 50.45695343700004], [9.070366285000034, 50.45697132500004], [9.059123073000023, 50.47144149500008], [9.061768654000048, 50.48463312000007], [9.076417148000075, 50.49510493200006], [9.041472191000025, 50.50132351900004], [9.075404879000075, 50.516726694000056], [9.10020998400006, 50.518878554000025], [9.109173122000072, 50.537630086000036], [9.126299419000077, 50.540864415000044], [9.133222339000042, 50.55671088400004], [9.117081090000056, 50.56545125200006], [9.078782291000039, 50.566326606000075], [9.050678874000027, 50.598965468000074], [9.003322940000032, 50.60243753900005], [9.006171644000062, 50.62328024900006], [8.96647101900004, 50.630580258000066], [8.941861552000034, 50.65300196600003], [8.966417762000049, 50.64678388300007], [8.971157, 50.67766049900007], [8.93935472100003, 50.70539179800005], [8.918372, 50.705605999000056], [8.90614325200005, 50.717412986000056], [8.911338, 50.72496399900007], [8.939961883000024, 50.730938826000056], [8.954979500000036, 50.75139499900007], [8.97749322900006, 50.76259761700004], [9.01530850000006, 50.77113649900008], [9.015420498000026, 50.78709445100003], [9.02410741500006, 50.794330804000026], [9.094307283000035, 50.80787165300006], [9.094516, 50.81808249900007], [9.106803730000024, 50.82858577500008], [9.13534886900004, 50.82508279400008], [9.148868500000049, 50.83664499900004]]]}}, {"type": "Feature", "properties": {"NUTS_ID": "DE71D", "LEVL_CODE": 3, "CNTR_CODE": "DE", "NAME_LATN": "Rheingau-Taunus-Kreis", "NUTS_NAME": "Rheingau-Taunus-Kreis", "MOUNT_TYPE": 2, "URBN_TYPE": 2, "COAST_TYPE": 3, "ll_slug": "rheingau"}, "geometry": {"type": "Polygon", "coordinates": [[[8.361145657000066, 50.296001413000056], [8.407770722000066, 50.268640051000034], [8.410798500000055, 50.258867499000075], [8.377764500000069, 50.243831999000065], [8.406613616000072, 50.22304080100008], [8.361171279000075, 50.21471250700006], [8.351881133000063, 50.19127994000007], [8.337069500000041, 50.191610999000034], [8.357266013000071, 50.18506693000006], [8.346483190000072, 50.174482030000036], [8.36116043100003, 50.168304111000054], [8.36401197400005, 50.15686107300007], [8.345159774000024, 50.159228710000036], [8.327649, 50.14588649900003], [8.316901247000033, 50.15151240100005], [8.243397500000071, 50.14755899900007], [8.190659054000037, 50.12312739200007], [8.15946652100007, 50.12377020500003], [8.112335, 50.09374849900007], [8.137038464000057, 50.08760590600008], [8.111570118000031, 50.08351594900006], [8.112240330000077, 50.07374427500008], [8.159526767000045, 50.05315973000006], [8.175135500000067, 50.03425549900004], [8.07957, 50.006898499000044], [8.035593168000048, 50.001992408000035], [7.967401500000051, 49.97777299900008], [7.886048258000073, 49.97203902100006], [7.864396, 49.98267549900004], [7.852399888000036, 50.01251989000008], [7.772620500000073, 50.058456499000044], [7.773997, 50.06653999900004], [7.803944166000065, 50.08421448900003], [7.835331259000043, 50.08340932500005], [7.835613346000059, 50.09446419200003], [7.830064500000049, 50.09318149900008], [7.83523150000002, 50.11002099900003], [7.854016, 50.128328999000075], [7.885242898000058, 50.114956910000046], [7.902529430000072, 50.12136075500007], [7.930097, 50.10373999900003], [7.922690714000055, 50.13310108200005], [7.931760809000025, 50.14396912600006], [7.89192476900007, 50.16239314000006], [7.883092, 50.18038699900006], [7.910707348000074, 50.19421991200005], [7.907826500000056, 50.20075649900008], [7.919818601000031, 50.20741953000004], [7.944719570000075, 50.20951217100003], [7.953052, 50.220397999000056], [7.984261013000037, 50.227034907000075], [7.990204, 50.23866499900004], [8.01312000300004, 50.218002487000035], [8.035050500000068, 50.21559299900008], [8.038050500000054, 50.22692849900005], [8.057681509000076, 50.23455123200006], [8.021650500000021, 50.25834499900003], [8.03666254500007, 50.27093365300004], [8.071930275000057, 50.272416401000044], [8.08065608000004, 50.26127330000003], [8.10479926100004, 50.26043048300005], [8.130836291000037, 50.28080222600005], [8.169809926000028, 50.27689897000005], [8.221256, 50.29155699900008], [8.230935901000066, 50.27608384200005], [8.256756738000036, 50.26483917300004], [8.289122872000064, 50.27795724200007], [8.313629, 50.27144899900003], [8.361145657000066, 50.296001413000056]]]}}]}